[
    {
        "Altitude(m)": 705236.2077056759,
        "Argument of Periapsis(deg)": 0.005695060593313534,
        "Eccentricity": 0.0,
        "Inclination(deg)": 45.0,
        "Latitude(deg)": 35.45533155986657,
        "Longitude(deg)": 104.72422281938773,
        "Mean Anomaly(deg)": 54.857508323740404,
        "RAAN(deg)": 159.99462402927088,
        "Satellite Name": "Constellation 1 707",
        "Satellite Number": 707,
        "Semi-Major Axis(m)": 7083131.272910544,
        "Time(s)": 95
    },
    {
        "Altitude(m)": 705242.1285044963,
        "Argument of Periapsis(deg)": 0.00575500859955894,
        "Eccentricity": 0.0,
        "Inclination(deg)": 45.0,
        "Latitude(deg)": 35.48573041112151,
        "Longitude(deg)": 104.78460040323164,
        "Mean Anomaly(deg)": 54.91820946399029,
        "RAAN(deg)": 159.99456744010533,
        "Satellite Name": "Constellation 1 707",
        "Satellite Number": 707,
        "Semi-Major Axis(m)": 7083131.272910544,
        "Time(s)": 96
    },
    {
        "Altitude(m)": 705248.0471652916,
        "Argument of Periapsis(deg)": 0.005814956605804345,
        "Eccentricity": 0.0,
        "Inclination(deg)": 45.0,
        "Latitude(deg)": 35.516094632696856,
        "Longitude(deg)": 104.84502667807358,
        "Mean Anomaly(deg)": 54.978910604240205,
        "RAAN(deg)": 159.99451085093978,
        "Satellite Name": "Constellation 1 707",
        "Satellite Number": 707,
        "Semi-Major Axis(m)": 7083131.272910544,
        "Time(s)": 97
    },
    {
        "Altitude(m)": 705253.9636505865,
        "Argument of Periapsis(deg)": 0.00587490461204975,
        "Eccentricity": 0.0,
        "Inclination(deg)": 45.0,
        "Latitude(deg)": 35.54642416049849,
        "Longitude(deg)": 104.90550151147396,
        "Mean Anomaly(deg)": 55.039611744490095,
        "RAAN(deg)": 159.9944542617742,
        "Satellite Name": "Constellation 1 707",
        "Satellite Number": 707,
        "Semi-Major Axis(m)": 7083131.272910544,
        "Time(s)": 98
    },
    {
        "Altitude(m)": 705259.8779229259,
        "Argument of Periapsis(deg)": 0.005934852618295156,
        "Eccentricity": 0.0,
        "Inclination(deg)": 45.0,
        "Latitude(deg)": 35.57671893037167,
        "Longitude(deg)": 104.96602493886779,
        "Mean Anomaly(deg)": 55.100312884740006,
        "RAAN(deg)": 159.9943976726086,
        "Satellite Name": "Constellation 1 707",
        "Satellite Number": 707,
        "Semi-Major Axis(m)": 7083131.272910544,
        "Time(s)": 99
    },
    {
        "Altitude(m)": 705265.7899448844,
        "Argument of Periapsis(deg)": 0.005994800624540561,
        "Eccentricity": 0.0,
        "Inclination(deg)": 45.0,
        "Latitude(deg)": 35.60697887810132,
        "Longitude(deg)": 105.02659699546602,
        "Mean Anomaly(deg)": 55.16101402498992,
        "RAAN(deg)": 159.99434108344303,
        "Satellite Name": "Constellation 1 707",
        "Satellite Number": 707,
        "Semi-Major Axis(m)": 7083131.272910544,
        "Time(s)": 100
    },
    {
        "Altitude(m)": 705271.6996790653,
        "Argument of Periapsis(deg)": 0.006054748630785968,
        "Eccentricity": 0.0,
        "Inclination(deg)": 45.0,
        "Latitude(deg)": 35.63720393941216,
        "Longitude(deg)": 105.08721771625426,
        "Mean Anomaly(deg)": 55.2217151652398,
        "RAAN(deg)": 159.99428449427748,
        "Satellite Name": "Constellation 1 707",
        "Satellite Number": 707,
        "Semi-Major Axis(m)": 7083131.272910544,
        "Time(s)": 101
    },
    {
        "Altitude(m)": 705277.6070880917,
        "Argument of Periapsis(deg)": 0.006114696637031373,
        "Eccentricity": 0.0,
        "Inclination(deg)": 45.0,
        "Latitude(deg)": 35.66739404996905,
        "Longitude(deg)": 105.1478871359917,
        "Mean Anomaly(deg)": 55.28241630548971,
        "RAAN(deg)": 159.99422790511193,
        "Satellite Name": "Constellation 1 707",
        "Satellite Number": 707,
        "Semi-Major Axis(m)": 7083131.272910544,
        "Time(s)": 102
    },
    {
        "Altitude(m)": 705283.5121346262,
        "Argument of Periapsis(deg)": 0.006174644643276778,
        "Eccentricity": 0.0,
        "Inclination(deg)": 45.0,
        "Latitude(deg)": 35.697549145377025,
        "Longitude(deg)": 105.20860528920943,
        "Mean Anomaly(deg)": 55.343117445739594,
        "RAAN(deg)": 159.99417131594632,
        "Satellite Name": "Constellation 1 707",
        "Satellite Number": 707,
        "Semi-Major Axis(m)": 7083131.272910544,
        "Time(s)": 103
    },
    {
        "Altitude(m)": 705289.4147813495,
        "Argument of Periapsis(deg)": 0.006234592649522184,
        "Eccentricity": 0.0,
        "Inclination(deg)": 45.0,
        "Latitude(deg)": 35.72766916118185,
        "Longitude(deg)": 105.2693720421124,
        "Mean Anomaly(deg)": 55.40381858598951,
        "RAAN(deg)": 159.99411472678077,
        "Satellite Name": "Constellation 1 707",
        "Satellite Number": 707,
        "Semi-Major Axis(m)": 7083131.272910544,
        "Time(s)": 104
    },
    {
        "Altitude(m)": 705295.3149909731,
        "Argument of Periapsis(deg)": 0.00629454065576759,
        "Eccentricity": 0.0,
        "Inclination(deg)": 45.0,
        "Latitude(deg)": 35.75775403286975,
        "Longitude(deg)": 105.33018776496657,
        "Mean Anomaly(deg)": 55.4645197262394,
        "RAAN(deg)": 159.9940581376152,
        "Satellite Name": "Constellation 1 707",
        "Satellite Number": 707,
        "Semi-Major Axis(m)": 7083131.272910544,
        "Time(s)": 105
    },
    {
        "Altitude(m)": 705301.2127262367,
        "Argument of Periapsis(deg)": 0.006354488662012995,
        "Eccentricity": 0.0,
        "Inclination(deg)": 45.0,
        "Latitude(deg)": 35.7878036958681,
        "Longitude(deg)": 105.39105232351454,
        "Mean Anomaly(deg)": 55.52522086648931,
        "RAAN(deg)": 159.99400154844963,
        "Satellite Name": "Constellation 1 707",
        "Satellite Number": 707,
        "Semi-Major Axis(m)": 7083131.272910544,
        "Time(s)": 106
    },
    {
        "Altitude(m)": 705307.1079499121,
        "Argument of Periapsis(deg)": 0.006414436668258401,
        "Eccentricity": 0.0,
        "Inclination(deg)": 45.0,
        "Latitude(deg)": 35.81781808554538,
        "Longitude(deg)": 105.45196575136315,
        "Mean Anomaly(deg)": 55.585922006739175,
        "RAAN(deg)": 159.99394495928408,
        "Satellite Name": "Constellation 1 707",
        "Satellite Number": 707,
        "Semi-Major Axis(m)": 7083131.272910544,
        "Time(s)": 107
    },
    {
        "Altitude(m)": 705313.0006247915,
        "Argument of Periapsis(deg)": 0.0064743846745038075,
        "Eccentricity": 0.0,
        "Inclination(deg)": 45.0,
        "Latitude(deg)": 35.84779713721154,
        "Longitude(deg)": 105.51292808188467,
        "Mean Anomaly(deg)": 55.64662314698911,
        "RAAN(deg)": 159.99388837011847,
        "Satellite Name": "Constellation 1 707",
        "Satellite Number": 707,
        "Semi-Major Axis(m)": 7083131.272910544,
        "Time(s)": 108
    },
    {
        "Altitude(m)": 705318.8907136982,
        "Argument of Periapsis(deg)": 0.0065343326807492125,
        "Eccentricity": 0.0,
        "Inclination(deg)": 45.0,
        "Latitude(deg)": 35.877740786118125,
        "Longitude(deg)": 105.57393934821584,
        "Mean Anomaly(deg)": 55.70732428723902,
        "RAAN(deg)": 159.99383178095292,
        "Satellite Name": "Constellation 1 707",
        "Satellite Number": 707,
        "Semi-Major Axis(m)": 7083131.272910544,
        "Time(s)": 109
    },
    {
        "Altitude(m)": 705324.778179492,
        "Argument of Periapsis(deg)": 0.0065942806869946176,
        "Eccentricity": 0.0,
        "Inclination(deg)": 45.0,
        "Latitude(deg)": 35.9076489674586,
        "Longitude(deg)": 105.63499958325637,
        "Mean Anomaly(deg)": 55.7680254274889,
        "RAAN(deg)": 159.99377519178736,
        "Satellite Name": "Constellation 1 707",
        "Satellite Number": 707,
        "Semi-Major Axis(m)": 7083131.272910544,
        "Time(s)": 110
    },
    {
        "Altitude(m)": 705330.6629850463,
        "Argument of Periapsis(deg)": 0.006654228693240024,
        "Eccentricity": 0.0,
        "Inclination(deg)": 45.0,
        "Latitude(deg)": 35.937521616368606,
        "Longitude(deg)": 105.69610865157036,
        "Mean Anomaly(deg)": 55.8287265677388,
        "RAAN(deg)": 159.99371860262178,
        "Satellite Name": "Constellation 1 707",
        "Satellite Number": 707,
        "Semi-Major Axis(m)": 7083131.272910544,
        "Time(s)": 111
    },
    {
        "Altitude(m)": 705336.5450932801,
        "Argument of Periapsis(deg)": 0.006714176699485429,
        "Eccentricity": 0.0,
        "Inclination(deg)": 45.0,
        "Latitude(deg)": 35.967358667925936,
        "Longitude(deg)": 105.75726692177412,
        "Mean Anomaly(deg)": 55.88942770798868,
        "RAAN(deg)": 159.99366201345623,
        "Satellite Name": "Constellation 1 707",
        "Satellite Number": 707,
        "Semi-Major Axis(m)": 7083131.272910544,
        "Time(s)": 112
    },
    {
        "Altitude(m)": 705342.4244671304,
        "Argument of Periapsis(deg)": 0.006774124705730835,
        "Eccentricity": 0.0,
        "Inclination(deg)": 45.0,
        "Latitude(deg)": 35.99716005715119,
        "Longitude(deg)": 105.81847425795125,
        "Mean Anomaly(deg)": 55.95012884823859,
        "RAAN(deg)": 159.99360542429065,
        "Satellite Name": "Constellation 1 707",
        "Satellite Number": 707,
        "Semi-Major Axis(m)": 7083131.272910544,
        "Time(s)": 113
    }
]